ORBCOMM FM105           
1 41181U 15081C   26062.24435443  .00000339  00000+0  13974-3 0  9996
2 41181  47.0008  82.5406 0001306   7.6324 352.4576 14.45487326538229
ORBCOMM FM110           
1 41182U 15081D   26062.42479715  .00001228  00000+0  29696-3 0  9993
2 41182  47.0014 141.4604 0003554 294.4608  65.5907 14.58719747542189
ORBCOMM FM118           
1 41183U 15081E   26062.25389293  .00001178  00000+0  28623-3 0  9999
2 41183  47.0034 142.5817 0003901 263.0100  97.0342 14.58715088542261
ORBCOMM FM112           
1 41184U 15081F   26062.32535052  .00000953  00000+0  23851-3 0  9992
2 41184  46.9996  50.7461 0001018  48.6959 311.4014 14.58716570543490
ORBCOMM FM113           
1 41185U 15081G   26062.37105889  .00000913  00000+0  22989-3 0  9996
2 41185  47.0012  50.8971 0000593  57.1173 302.9770 14.58717779543484
ORBCOMM FM115           
1 41186U 15081H   26062.46501536  .00001038  00000+0  23407-3 0  9991
2 41186  46.9973 245.8766 0001143 205.3366 154.7466 14.63105304545736
ORBCOMM FM108           
1 41187U 15081J   26062.12823716  .00001167  00000+0  28386-3 0  9996
2 41187  47.0060 323.5848 0002219  56.0117 304.0979 14.58728544544594
ORBCOMM FM117           
1 41188U 15081K   26062.09375520  .00001107  00000+0  27116-3 0  9992
2 41188  47.0023 322.4166 0002543  66.8447 293.2706 14.58720328544634
ORBCOMM FM116           
1 41189U 15081L   26062.14302163  .00000958  00000+0  23956-3 0  9993
2 41189  47.0028  51.9647 0002691 289.7792  70.2803 14.58710608543451
